{"type": "FeatureCollection", "features": [{"type": "Feature", "properties": {"norad_id": 66315, "name": "SENTINEL-1D", "group": "last-30-days", "lat": 81.06113414796599, "lon": -82.95095402317683, "alt_km": 685.2123681854255, "timestamp": "2025-12-04T05:42:42.156125+00:00", "meta": {"OBJECT_NAME": "SENTINEL-1D", "OBJECT_ID": "2025-251A", "EPOCH": "2025-12-03T14:30:47.068416", "MEAN_MOTION": 14.5991103, "ECCENTRICITY": 0.00026458, "INCLINATION": 98.1924, "RA_OF_ASC_NODE": 342.7567, "ARG_OF_PERICENTER": 152.8376, "MEAN_ANOMALY": 207.2963, "EPHEMERIS_TYPE": 0, "CLASSIFICATION_TYPE": "U", "NORAD_CAT_ID": 66315, "ELEMENT_SET_NO": 999, "REV_AT_EPOCH": 420, "BSTAR": 8.0054337e-05, "MEAN_MOTION_DOT": 3.37e-06, "MEAN_MOTION_DDOT": 0}, "tle": {"line1": "1 66315U 25251A   25337.60471144  .00000337  00000+0  80054-4 0  9996", "line2": "2 66315  98.1924 342.7567 0002645 152.8376 207.2963 14.59911030  4207"}}, "geometry": {"type": "Point", "coordinates": [-82.95095402317683, 81.06113414796599]}}, {"type": "Feature", "properties": {"norad_id": 66316, "name": "QPS-SAR-14 (YACHIHOKO-I)", "group": "last-30-days", "lat": -17.619764836324208, "lon": -37.335918123748904, "alt_km": 578.0870606663175, "timestamp": "2025-12-04T05:42:42.156182+00:00", "meta": {"OBJECT_NAME": "QPS-SAR-14 (YACHIHOKO-I)", "OBJECT_ID": "2025-252A", "EPOCH": "2025-12-03T11:11:07.714464", "MEAN_MOTION": 14.97541562, "ECCENTRICITY": 0.00068382, "INCLINATION": 42.0031, "RA_OF_ASC_NODE": 126.2285, "ARG_OF_PERICENTER": 87.0305, "MEAN_ANOMALY": 273.1302, "EPHEMERIS_TYPE": 0, "CLASSIFICATION_TYPE": "U", "NORAD_CAT_ID": 66316, "ELEMENT_SET_NO": 999, "REV_AT_EPOCH": 414, "BSTAR": 0.00071030932, "MEAN_MOTION_DOT": 8.256e-05, "MEAN_MOTION_DDOT": 0}, "tle": {"line1": "1 66316U 25252A   25337.46606151  .00008256  00000+0  71031-3 0  9992", "line2": "2 66316  42.0031 126.2285 0006838  87.0305 273.1302 14.97541562  4149"}}, "geometry": {"type": "Point", "coordinates": [-37.335918123748904, -17.619764836324208]}}, {"type": "Feature", "properties": {"norad_id": 66317, "name": "ELECTRON R/B", "group": "last-30-days", "lat": -12.845078293400334, "lon": 87.43428329798044, "alt_km": 240.30283443320423, "timestamp": "2025-12-04T05:42:42.156200+00:00", "meta": {"OBJECT_NAME": "ELECTRON R/B", "OBJECT_ID": "2025-252B", "EPOCH": "2025-12-03T17:54:17.702208", "MEAN_MOTION": 16.11372677, "ECCENTRICITY": 0.00810811, "INCLINATION": 41.986, "RA_OF_ASC_NODE": 105.3311, "ARG_OF_PERICENTER": 73.5218, "MEAN_ANOMALY": 287.4538, "EPHEMERIS_TYPE": 0, "CLASSIFICATION_TYPE": "U", "NORAD_CAT_ID": 66317, "ELEMENT_SET_NO": 999, "REV_AT_EPOCH": 440, "BSTAR": 0.0017947301, "MEAN_MOTION_DOT": 0.03381088, "MEAN_MOTION_DDOT": 8.186283e-06}, "tle": {"line1": "1 66317U 25252B   25337.74603822  .03381088  81863-5  17947-2 0  9993", "line2": "2 66317  41.9860 105.3311 0081081  73.5218 287.4538 16.11372677  4407"}}, "geometry": {"type": "Point", "coordinates": [87.43428329798044, -12.845078293400334]}}, {"type": "Feature", "properties": {"norad_id": 66319, "name": "STARLINK-35442", "group": "last-30-days", "lat": 7.139609417110944, "lon": -152.8558328300833, "alt_km": 443.2098889893814, "timestamp": "2025-12-04T05:42:42.156213+00:00", "meta": {"OBJECT_NAME": "STARLINK-35442", "OBJECT_ID": "2025-253A", "EPOCH": "2025-12-03T22:00:03.000096", "MEAN_MOTION": 15.40830376, "ECCENTRICITY": 0.00017078, "INCLINATION": 43.0012, "RA_OF_ASC_NODE": 36.7208, "ARG_OF_PERICENTER": 266.1201, "MEAN_ANOMALY": 279.1335, "EPHEMERIS_TYPE": 0, "CLASSIFICATION_TYPE": "U", "NORAD_CAT_ID": 66319, "ELEMENT_SET_NO": 999, "REV_AT_EPOCH": 560, "BSTAR": -0.0071802901, "MEAN_MOTION_DOT": -0.00290384, "MEAN_MOTION_DDOT": 0}, "tle": {"line1": "1 66319U 25253A   25337.91670139 -.00290384  00000+0 -71803-2 0  9996", "line2": "2 66319  43.0012  36.7208 0001707 266.1201 279.1335 15.40830376  5604"}}, "geometry": {"type": "Point", "coordinates": [-152.8558328300833, 7.139609417110944]}}, {"type": "Feature", "properties": {"norad_id": 66320, "name": "STARLINK-34616", "group": "last-30-days", "lat": -15.02764682153697, "lon": 17.71002399993865, "alt_km": 416.81563552337957, "timestamp": "2025-12-04T05:42:42.156247+00:00", "meta": {"OBJECT_NAME": "STARLINK-34616", "OBJECT_ID": "2025-253B", "EPOCH": "2025-12-03T11:15:28.443744", "MEAN_MOTION": 15.50616353, "ECCENTRICITY": 0.00037047, "INCLINATION": 42.9968, "RA_OF_ASC_NODE": 38.956, "ARG_OF_PERICENTER": 219.5351, "MEAN_ANOMALY": 140.524, "EPHEMERIS_TYPE": 0, "CLASSIFICATION_TYPE": "U", "NORAD_CAT_ID": 66320, "ELEMENT_SET_NO": 999, "REV_AT_EPOCH": 557, "BSTAR": 0.0021204333, "MEAN_MOTION_DOT": 0.00126267, "MEAN_MOTION_DDOT": 0}, "tle": {"line1": "1 66320U 25253B   25337.46907921  .00126267  00000+0  21204-2 0  9996", "line2": "2 66320  42.9968  38.9560 0003704 219.5351 140.5240 15.50616353  5576"}}, "geometry": {"type": "Point", "coordinates": [17.71002399993865, -15.02764682153697]}}, {"type": "Feature", "properties": {"norad_id": 66321, "name": "STARLINK-34615", "group": "last-30-days", "lat": -34.13837033052906, "lon": -13.028721328529306, "alt_km": 411.60236182182143, "timestamp": "2025-12-04T05:42:42.156262+00:00", "meta": {"OBJECT_NAME": "STARLINK-34615", "OBJECT_ID": "2025-253C", "EPOCH": "2025-12-03T22:00:03.000096", "MEAN_MOTION": 15.54160766, "ECCENTRICITY": 0.00013755, "INCLINATION": 43.0005, "RA_OF_ASC_NODE": 35.5446, "ARG_OF_PERICENTER": 266.194, "MEAN_ANOMALY": 39.6851, "EPHEMERIS_TYPE": 0, "CLASSIFICATION_TYPE": "U", "NORAD_CAT_ID": 66321, "ELEMENT_SET_NO": 999, "REV_AT_EPOCH": 555, "BSTAR": -0.040846099, "MEAN_MOTION_DOT": -0.02383257, "MEAN_MOTION_DDOT": 0}, "tle": {"line1": "1 66321U 25253C   25337.91670139 -.02383257  00000+0 -40846-1 0  9995", "line2": "2 66321  43.0005  35.5446 0001375 266.1940  39.6851 15.54160766  5551"}}, "geometry": {"type": "Point", "coordinates": [-13.028721328529306, -34.13837033052906]}}, {"type": "Feature", "properties": {"norad_id": 66322, "name": "STARLINK-35292", "group": "last-30-days", "lat": -17.85394538499191, "lon": -125.0023484869151, "alt_km": 445.4643389022149, "timestamp": "2025-12-04T05:42:42.156274+00:00", "meta": {"OBJECT_NAME": "STARLINK-35292", "OBJECT_ID": "2025-253D", "EPOCH": "2025-12-03T22:00:03.000096", "MEAN_MOTION": 15.4067149, "ECCENTRICITY": 0.00013768, "INCLINATION": 43.0009, "RA_OF_ASC_NODE": 36.6281, "ARG_OF_PERICENTER": 273.9096, "MEAN_ANOMALY": 308.6259, "EPHEMERIS_TYPE": 0, "CLASSIFICATION_TYPE": "U", "NORAD_CAT_ID": 66322, "ELEMENT_SET_NO": 999, "REV_AT_EPOCH": 551, "BSTAR": 0.001202322, "MEAN_MOTION_DOT": 0.00050204, "MEAN_MOTION_DDOT": 0}, "tle": {"line1": "1 66322U 25253D   25337.91670139  .00050204  00000+0  12023-2 0  9992", "line2": "2 66322  43.0009  36.6281 0001376 273.9096 308.6259 15.40671490  5517"}}, "geometry": {"type": "Point", "coordinates": [-125.0023484869151, -17.85394538499191]}}, {"type": "Feature", "properties": {"norad_id": 66323, "name": "STARLINK-35309", "group": "last-30-days", "lat": -4.697800687180967, "lon": 29.360760531238316, "alt_km": 414.63816479402885, "timestamp": "2025-12-04T05:42:42.156285+00:00", "meta": {"OBJECT_NAME": "STARLINK-35309", "OBJECT_ID": "2025-253E", "EPOCH": "2025-12-03T12:44:13.575552", "MEAN_MOTION": 15.5062735, "ECCENTRICITY": 0.00017369, "INCLINATION": 42.9999, "RA_OF_ASC_NODE": 38.5588, "ARG_OF_PERICENTER": 269.0685, "MEAN_ANOMALY": 90.9976, "EPHEMERIS_TYPE": 0, "CLASSIFICATION_TYPE": "U", "NORAD_CAT_ID": 66323, "ELEMENT_SET_NO": 999, "REV_AT_EPOCH": 550, "BSTAR": 0.0016514731, "MEAN_MOTION_DOT": 0.00097932, "MEAN_MOTION_DDOT": 0}, "tle": {"line1": "1 66323U 25253E   25337.53071268  .00097932  00000+0  16515-2 0  9998", "line2": "2 66323  42.9999  38.5588 0001736 269.0685  90.9976 15.50627350  5508"}}, "geometry": {"type": "Point", "coordinates": [29.360760531238316, -4.697800687180967]}}, {"type": "Feature", "properties": {"norad_id": 66324, "name": "STARLINK-35506", "group": "last-30-days", "lat": -10.035985441530954, "lon": 23.491336408422075, "alt_km": 415.6155672767645, "timestamp": "2025-12-04T05:42:42.156298+00:00", "meta": {"OBJECT_NAME": "STARLINK-35506", "OBJECT_ID": "2025-253F", "EPOCH": "2025-12-03T12:46:12.432576", "MEAN_MOTION": 15.5059009, "ECCENTRICITY": 8.705e-05, "INCLINATION": 43.0006, "RA_OF_ASC_NODE": 38.5692, "ARG_OF_PERICENTER": 276.2742, "MEAN_ANOMALY": 83.8019, "EPHEMERIS_TYPE": 0, "CLASSIFICATION_TYPE": "U", "NORAD_CAT_ID": 66324, "ELEMENT_SET_NO": 999, "REV_AT_EPOCH": 550, "BSTAR": 0.00045167229, "MEAN_MOTION_DOT": 0.00026255, "MEAN_MOTION_DDOT": 0}, "tle": {"line1": "1 66324U 25253F   25337.53208834  .00026255  00000+0  45167-3 0  9996", "line2": "2 66324  43.0006  38.5692 0000870 276.2742  83.8019 15.50590090  5507"}}, "geometry": {"type": "Point", "coordinates": [23.491336408422075, -10.035985441530954]}}, {"type": "Feature", "properties": {"norad_id": 66325, "name": "STARLINK-35504", "group": "last-30-days", "lat": -38.6128095935287, "lon": -24.42067693564631, "alt_km": 446.39100576995315, "timestamp": "2025-12-04T05:42:42.156311+00:00", "meta": {"OBJECT_NAME": "STARLINK-35504", "OBJECT_ID": "2025-253G", "EPOCH": "2025-12-03T22:00:03.000096", "MEAN_MOTION": 15.40718243, "ECCENTRICITY": 0.00013875, "INCLINATION": 43.0007, "RA_OF_ASC_NODE": 36.417, "ARG_OF_PERICENTER": 295.3459, "MEAN_ANOMALY": 14.3045, "EPHEMERIS_TYPE": 0, "CLASSIFICATION_TYPE": "U", "NORAD_CAT_ID": 66325, "ELEMENT_SET_NO": 999, "REV_AT_EPOCH": 551, "BSTAR": -0.0020699771, "MEAN_MOTION_DOT": -0.00085857, "MEAN_MOTION_DDOT": 0}, "tle": {"line1": "1 66325U 25253G   25337.91670139 -.00085857  00000+0 -20700-2 0  9990", "line2": "2 66325  43.0007  36.4170 0001387 295.3459  14.3045 15.40718243  5518"}}, "geometry": {"type": "Point", "coordinates": [-24.42067693564631, -38.6128095935287]}}]}